ORBCOMM FM05            
1 25117U 97084F   24237.04710569  .00004441  00000+0  13439-2 0  9998
2 25117  45.0165 352.3396 0003827 201.3431 158.7260 14.43421313398571
ORBCOMM FM06            
1 25118U 97084G   24236.58783009  .00004659  00000+0  14051-2 0  9998
2 25118  45.0158 354.6333 0003397 212.2195 162.0935 14.43512608398485
ORBCOMM FM07            
1 25119U 97084H   24236.51402227  .00004400  00000+0  13318-2 0  9991
2 25119  45.0156 355.5954 0004135 187.0063 173.0730 14.43414676398466
ORBCOMM FM03            
1 25158U 98007B   24237.04258546  .00003296  00000+0  12423-2 0  9990
2 25158 107.9731 245.8509 0045579  46.5304 313.9612 14.32713637381594
ORBCOMM FM04            
1 25159U 98007C   24237.01144184  .00002776  00000+0  10504-2 0  9990
2 25159 107.9717 248.7994 0041195  44.0106 316.4302 14.32979892381739
ORBCOMM FM17            
1 25413U 98046A   24237.15651052  .00002407  00000+0  91201-3 0  9993
2 25413  44.9928 218.0313 0001445 235.8448 124.2261 14.33568567360699
ORBCOMM FM18            
1 25414U 98046B   24236.73385749  .00003482  00000+0  12232-2 0  9994
2 25414  44.9925 144.8226 0003351 233.3170 126.7370 14.36493499361614
ORBCOMM FM19            
1 25415U 98046C   24237.15095095  .00002975  00000+0  10557-2 0  9998
2 25415  44.9938 144.4048 0002083 230.3648 240.6813 14.36326940361664
